<?xml version="1.0" encoding="UTF-8"?>
<kml xmlns="http://www.opengis.net/kml/2.2"><Document>
<name>Japan 2026 — Reiseplan</name>
<Style id="kultur"><IconStyle><color>ff2B40C6</color><scale>1.1</scale><Icon><href>http://maps.google.com/mapfiles/kml/paddle/wht-blank.png</href></Icon></IconStyle><LabelStyle><scale>0.9</scale></LabelStyle></Style>
<Style id="essen_trinken"><IconStyle><color>ff337CA6</color><scale>1.1</scale><Icon><href>http://maps.google.com/mapfiles/kml/paddle/wht-blank.png</href></Icon></IconStyle><LabelStyle><scale>0.9</scale></LabelStyle></Style>
<Style id="einkaufen_handwerk"><IconStyle><color>ff3C2316</color><scale>1.1</scale><Icon><href>http://maps.google.com/mapfiles/kml/paddle/wht-blank.png</href></Icon></IconStyle><LabelStyle><scale>0.9</scale></LabelStyle></Style>
<Style id="natur_aktiv"><IconStyle><color>ff3E6B5E</color><scale>1.1</scale><Icon><href>http://maps.google.com/mapfiles/kml/paddle/wht-blank.png</href></Icon></IconStyle><LabelStyle><scale>0.9</scale></LabelStyle></Style>
<Style id="übernachten"><IconStyle><color>ff6B5D2F</color><scale>1.1</scale><Icon><href>http://maps.google.com/mapfiles/kml/paddle/wht-blank.png</href></Icon></IconStyle><LabelStyle><scale>0.9</scale></LabelStyle></Style>
<Folder><name>Osaka — Zentrum</name>
<Placemark><name>001 · Osaka-jo</name><description><![CDATA[<b>Kultur</b><br/>Hideyoshis Machtsymbol, Museum im Inneren<br/><a href="https://www.google.com/maps/search/?api=1&query=34.6872571,135.5258546&query_place_id=ChIJ_TooXM3gAGARQR6hXH3QAQ8">In Google Maps öffnen</a>]]></description><styleUrl>#kultur</styleUrl><Point><coordinates>135.5258546,34.6872571,0</coordinates></Point></Placemark>
<Placemark><name>002 · Shitenno-ji</name><description><![CDATA[<b>Kultur</b><br/>Japans ältester Staatstempel (593), von Prinz Shotoku<br/><a href="https://www.google.com/maps/search/?api=1&query=34.6544581,135.5165239&query_place_id=ChIJIVA6O_jdAGARLWCtv8iBqrY">In Google Maps öffnen</a>]]></description><styleUrl>#kultur</styleUrl><Point><coordinates>135.5165239,34.6544581,0</coordinates></Point></Placemark>
<Placemark><name>003 · Cascade (Bäckerei) ★Freundestipp</name><description><![CDATA[<b>Essen &amp; Trinken</b><br/>Sehr guter Bäcker, einfach mehrere kleine Teile probieren. Nur Bargeld; zwei Schlangen - die für Mitnahme ist länger, drinnen essen geht schneller; 7:30-22 Uhr<br/><a href="https://www.google.com/maps/search/?api=1&query=34.7041623,135.4982414&query_place_id=ChIJY2t6EJLmAGARGr666HItRG0">In Google Maps öffnen</a>]]></description><styleUrl>#essen_trinken</styleUrl><Point><coordinates>135.4982414,34.7041623,0</coordinates></Point></Placemark>
<Placemark><name>004 · Dotonbori</name><description><![CDATA[<b>Essen &amp; Trinken</b><br/>Neon-Postkartenmotiv; die ruhigeren Gassen liegen in Ura-Namba dahinter<br/><a href="https://www.google.com/maps/search/?api=1&query=34.6686471,135.5030983&query_place_id=ChIJg2DcJhXnAGARCbeAHoZrPeQ">In Google Maps öffnen</a>]]></description><styleUrl>#essen_trinken</styleUrl><Point><coordinates>135.5030983,34.6686471,0</coordinates></Point></Placemark>
<Placemark><name>005 · Glico Running Man (Dotonbori)</name><description><![CDATA[<b>Essen &amp; Trinken</b><br/>Das Neon-Wahrzeichen seit 1935; abends am Kanal<br/><a href="https://www.google.com/maps/search/?api=1&query=34.6689339,135.5010679&query_place_id=ChIJ6XHOkxTnAGARvyn92D4gWVs">In Google Maps öffnen</a>]]></description><styleUrl>#essen_trinken</styleUrl><Point><coordinates>135.5010679,34.6689339,0</coordinates></Point></Placemark>
<Placemark><name>006 · Kokoro ni Amai Anpanya (Bäckerei) ★Freundestipp</name><description><![CDATA[<b>Essen &amp; Trinken</b><br/>Klassiker seit Ewigkeiten, ~¥151/Stück. Probieren: Koshi-Anpan, Kuri-Anpan (Kastanie), Karee-Pan (frittiert mit Curry). Nur Bargeld, englische Bildkarte auf Nachfrage; 10-21:30<br/><a href="https://www.google.com/maps/search/?api=1&query=34.7038378,135.4976646&query_place_id=ChIJJc7FZZLmAGARGtFYyZ2tKYk">In Google Maps öffnen</a>]]></description><styleUrl>#essen_trinken</styleUrl><Point><coordinates>135.4976646,34.7038378,0</coordinates></Point></Placemark>
<Placemark><name>007 · Kuromon-Markt</name><description><![CDATA[<b>Essen &amp; Trinken</b><br/>Streetfood-Markt; vor 10 Uhr Händler-Alltag statt Spieße-Tourismus<br/><a href="https://www.google.com/maps/search/?api=1&query=34.6653511,135.5062417&query_place_id=ChIJXSJB5UHnAGARQcEjvngsHaw">In Google Maps öffnen</a>]]></description><styleUrl>#essen_trinken</styleUrl><Point><coordinates>135.5062417,34.6653511,0</coordinates></Point></Placemark>
<Placemark><name>008 · New Matsuzaka Umeda 32 ★Freundestipp</name><description><![CDATA[<b>Essen &amp; Trinken</b><br/>Teppanyaki im 31. Stock mit Skyline-Blick, Kobe- und Matsusaka-Rind vor den Augen zubereitet. NUR MIT RESERVIERUNG, MITTWOCHS GESCHLOSSEN. Mittags deutlich günstiger als abends<br/><a href="https://www.google.com/maps/search/?api=1&query=34.7028289,135.4992168&query_place_id=ChIJt45D_pLmAGAR8SjAKFlvWoY">In Google Maps öffnen</a>]]></description><styleUrl>#essen_trinken</styleUrl><Point><coordinates>135.4992168,34.7028289,0</coordinates></Point></Placemark>
<Placemark><name>009 · Onigiri-ya Hitotsubu ★Freundestipp</name><description><![CDATA[<b>Essen &amp; Trinken</b><br/>Öffnet schon 7 Uhr - ideal für den Zug. Erdgeschoss, von der Yodobashi-Camera-Kreuzung kommend links rein; 7-20 Uhr<br/><a href="https://www.google.com/maps/search/?api=1&query=34.7043458,135.4982621&query_place_id=ChIJY2t6EJLmAGARVKV7hc70RwA">In Google Maps öffnen</a>]]></description><styleUrl>#essen_trinken</styleUrl><Point><coordinates>135.4982621,34.7043458,0</coordinates></Point></Placemark>
<Placemark><name>010 · Shinsekai</name><description><![CDATA[<b>Essen &amp; Trinken</b><br/>Retro-Viertel, Kushikatsu; Seitengassen Jan-Jan-Yokocho<br/><a href="https://www.google.com/maps/search/?api=1&query=34.6516013,135.5059562&query_place_id=ChIJV6JXdmDnAGAR-9a4atjXsTY">In Google Maps öffnen</a>]]></description><styleUrl>#essen_trinken</styleUrl><Point><coordinates>135.5059562,34.6516013,0</coordinates></Point></Placemark>
<Placemark><name>011 · Tenjinbashi-suji</name><description><![CDATA[<b>Essen &amp; Trinken</b><br/>Japans längste Einkaufsstraße; abends Izakaya-Viertel der Einheimischen<br/><a href="https://www.google.com/maps/search/?api=1&query=34.7025467,135.5114541&query_place_id=ChIJTW9DUrnmAGARVwa3Ga1U-JI">In Google Maps öffnen</a>]]></description><styleUrl>#essen_trinken</styleUrl><Point><coordinates>135.5114541,34.7025467,0</coordinates></Point></Placemark>
<Placemark><name>012 · America-mura</name><description><![CDATA[<b>Einkaufen &amp; Handwerk</b><br/>Jünger und lauter; viele Second-Hand-Läden auf engem Raum<br/><a href="https://www.google.com/maps/search/?api=1&query=34.6719318,135.4988498&query_place_id=ChIJby5T_xbnAGARF39mR8GVhdc">In Google Maps öffnen</a>]]></description><styleUrl>#einkaufen_handwerk</styleUrl><Point><coordinates>135.4988498,34.6719318,0</coordinates></Point></Placemark>
<Placemark><name>013 · Den Den Town / Nipponbashi</name><description><![CDATA[<b>Einkaufen &amp; Handwerk</b><br/>Osakas Anime-Viertel; auch Retro-Games und alte Konsolen<br/><a href="https://www.google.com/maps/search/?api=1&query=34.6604678,135.5061904&query_place_id=ChIJv6w_-2fnAGARH2p9wbwos3c">In Google Maps öffnen</a>]]></description><styleUrl>#einkaufen_handwerk</styleUrl><Point><coordinates>135.5061904,34.6604678,0</coordinates></Point></Placemark>
<Placemark><name>014 · Nakazakicho</name><description><![CDATA[<b>Einkaufen &amp; Handwerk</b><br/>Vintage-Viertel: alte Holzhäuser, Second-Hand-Läden, Retro-Cafés<br/><a href="https://www.google.com/maps/search/?api=1&query=34.7067988,135.5051143&query_place_id=ChIJV2R0lpXmAGAR0isU5tWq7pU">In Google Maps öffnen</a>]]></description><styleUrl>#einkaufen_handwerk</styleUrl><Point><coordinates>135.5051143,34.7067988,0</coordinates></Point></Placemark>
<Placemark><name>015 · Sakai Ichimonji Mitsuhide (Messer) ★Freundestipp</name><description><![CDATA[<b>Einkaufen &amp; Handwerk</b><br/>4,7 Sterne aus 333 Bewertungen - englischsprachiges Personal, Gratis-Gravur und Lifetime-Schleifkarte beim Kauf; bietet auch einen Messer-Kurs an. Mo-Fr 9:30-18:30, Sa/So ab 10:30<br/><a href="https://www.google.com/maps/search/?api=1&query=34.663507,135.503597&query_place_id=ChIJPUQn0GvnAGARjNL6DofupQI">In Google Maps öffnen</a>]]></description><styleUrl>#einkaufen_handwerk</styleUrl><Point><coordinates>135.503597,34.663507,0</coordinates></Point></Placemark>
<Placemark><name>016 · Semba Center Building ★Freundestipp</name><description><![CDATA[<b>Einkaufen &amp; Handwerk</b><br/>Unterirdische Arkade unter der Hochbahn: 10 Abschnitte, 2 Ebenen, ~4 km Läden. Second-Hand-Kimono ab ¥3.000, Chawan, Stoffballen, Obi. ACHTUNG: SONNTAGS GESCHLOSSEN, sonst 9-22 Uhr<br/><a href="https://www.google.com/maps/search/?api=1&query=34.6818429,135.5040868&query_place_id=ChIJmdEbESLnAGARoi0uvToZmR8">In Google Maps öffnen</a>]]></description><styleUrl>#einkaufen_handwerk</styleUrl><Point><coordinates>135.5040868,34.6818429,0</coordinates></Point></Placemark>
<Placemark><name>017 · Sennichimae Doguyasuji (Küchenwaren-Meile)</name><description><![CDATA[<b>Einkaufen &amp; Handwerk</b><br/>150 m Arkade voller Küchen-, Messer- und Geschirrläden; 10-18 Uhr. Am Ende der Straße gibt es eine Packstation mit Papier und Klebeband<br/><a href="https://www.google.com/maps/search/?api=1&query=34.6640141,135.5035063&query_place_id=ChIJfQfezmvnAGARy4Sd3VGFy_A">In Google Maps öffnen</a>]]></description><styleUrl>#einkaufen_handwerk</styleUrl><Point><coordinates>135.5035063,34.6640141,0</coordinates></Point></Placemark>
<Placemark><name>018 · Yamaka Toki (Geschirr) ★Freundestipp</name><description><![CDATA[<b>Einkaufen &amp; Handwerk</b><br/>Geschirr von Mini-Sojaschälchen bis Ramen-Schalen, günstig; 10-18 Uhr. Kein Tax-Free, wird nur in Zeitungspapier gewickelt - eigene Luftpolsterfolie mitbringen<br/><a href="https://www.google.com/maps/search/?api=1&query=34.6644726,135.5034209&query_place_id=ChIJueCKsGvnAGARWiD7HievOt0">In Google Maps öffnen</a>]]></description><styleUrl>#einkaufen_handwerk</styleUrl><Point><coordinates>135.5034209,34.6644726,0</coordinates></Point></Placemark>
</Folder>
<Folder><name>Osaka — Ausflüge</name>
<Placemark><name>019 · Danjo Garan</name><description><![CDATA[<b>Kultur</b><br/>Das sakrale Zentrum, gegründet von Kukai; 49 m hohe Konpon-Daito-Pagode<br/><a href="https://www.google.com/maps/search/?api=1&query=34.2134865,135.5799663&query_place_id=ChIJ-TitDQ0nB2ARwgYPgu5bEes">In Google Maps öffnen</a>]]></description><styleUrl>#kultur</styleUrl><Point><coordinates>135.5799663,34.2134865,0</coordinates></Point></Placemark>
<Placemark><name>020 · Himeji-jo</name><description><![CDATA[<b>Kultur</b><br/>Tagesausflug: schönste Original-Burg Japans, ~45 Min. Shinkansen<br/><a href="https://www.google.com/maps/search/?api=1&query=34.839449,134.6939047&query_place_id=ChIJsyQzogPgVDURsYG6bi-MT3o">In Google Maps öffnen</a>]]></description><styleUrl>#kultur</styleUrl><Point><coordinates>134.6939047,34.839449,0</coordinates></Point></Placemark>
<Placemark><name>021 · Iga-Ueno-Burg</name><description><![CDATA[<b>Kultur</b><br/>Eine der höchsten Steinmauern Japans; ruhig, weil abseits der großen Namen<br/><a href="https://www.google.com/maps/search/?api=1&query=34.7701586,136.1270173&query_place_id=ChIJiyAGcclQAWARwzdxBxr_sSk">In Google Maps öffnen</a>]]></description><styleUrl>#kultur</styleUrl><Point><coordinates>136.1270173,34.7701586,0</coordinates></Point></Placemark>
<Placemark><name>022 · Iga-ryu Ninja-Museum</name><description><![CDATA[<b>Kultur</b><br/>Ninja-Haus mit Geheimtüren, Werkzeug-Ausstellung, Live-Show (+600 ¥) und Shuriken-Werfen<br/><a href="https://www.google.com/maps/search/?api=1&query=34.771836,136.129113&query_place_id=ChIJS_8NSspQAWAR3iMt6Fo5B6w">In Google Maps öffnen</a>]]></description><styleUrl>#kultur</styleUrl><Point><coordinates>136.129113,34.771836,0</coordinates></Point></Placemark>
<Placemark><name>023 · Kongobu-ji</name><description><![CDATA[<b>Kultur</b><br/>Haupttempel des Shingon-Buddhismus; größter Steingarten Japans (140 Granitblöcke)<br/><a href="https://www.google.com/maps/search/?api=1&query=34.214028,135.5840943&query_place_id=ChIJXVifh3InB2ARxY1UV-2ukyo">In Google Maps öffnen</a>]]></description><styleUrl>#kultur</styleUrl><Point><coordinates>135.5840943,34.214028,0</coordinates></Point></Placemark>
<Placemark><name>024 · Nyonin-do</name><description><![CDATA[<b>Kultur</b><br/>Letzte erhaltene Frauenhalle - hierher durften Frauen früher nur bis zum Rand des heiligen Bergs<br/><a href="https://www.google.com/maps/search/?api=1&query=34.2199987,135.5809115&query_place_id=ChIJbbXRwAonB2ARbm5NmWIaaqU">In Google Maps öffnen</a>]]></description><styleUrl>#kultur</styleUrl><Point><coordinates>135.5809115,34.2199987,0</coordinates></Point></Placemark>
<Placemark><name>025 · Okunoin-Friedhof</name><description><![CDATA[<b>Kultur</b><br/>Über 200.000 Grabmäler entlang eines 2 km langen Zedernwegs; nachts laternenbeleuchtet, 24 h offen<br/><a href="https://www.google.com/maps/search/?api=1&query=34.2176933,135.6050531&query_place_id=ChIJ9-xm1p3YBmARIXiCrXhY99Y">In Google Maps öffnen</a>]]></description><styleUrl>#kultur</styleUrl><Point><coordinates>135.6050531,34.2176933,0</coordinates></Point></Placemark>
<Placemark><name>026 · Ryusen-ji</name><description><![CDATA[<b>Kultur</b><br/>Wasserfall-Reinigung (Suigyo) + Feuerritual (Gomagyo); vorab arrangieren<br/><a href="https://www.google.com/maps/search/?api=1&query=34.2695578,135.8792985&query_place_id=ChIJO3yg50bABmARv8JZy0oLWGY">In Google Maps öffnen</a>]]></description><styleUrl>#kultur</styleUrl><Point><coordinates>135.8792985,34.2695578,0</coordinates></Point></Placemark>
<Placemark><name>027 · Sumiyoshi-Taisha</name><description><![CDATA[<b>Kultur</b><br/>Ur-Schrein, Architektur älter als der China-Einfluss<br/><a href="https://www.google.com/maps/search/?api=1&query=34.6123945,135.4937612&query_place_id=ChIJAQB8xrvnAGARgh8ATf4d9ac">In Google Maps öffnen</a>]]></description><styleUrl>#kultur</styleUrl><Point><coordinates>135.4937612,34.6123945,0</coordinates></Point></Placemark>
<Placemark><name>028 · Sakai Messer-Museum &amp; Shop</name><description><![CDATA[<b>Einkaufen &amp; Handwerk</b><br/>Tagesausflug: Messer-Workshop, schärfen + Griff + Gravur<br/><a href="https://www.google.com/maps/search/?api=1&query=34.5828504,135.4774158&query_place_id=ChIJJ0mEmpLcAGARqDtnx525QRk">In Google Maps öffnen</a>]]></description><styleUrl>#einkaufen_handwerk</styleUrl><Point><coordinates>135.4774158,34.5828504,0</coordinates></Point></Placemark>
<Placemark><name>029 · Akame-48-Wasserfälle (Fallback)</name><description><![CDATA[<b>Natur &amp; Aktiv</b><br/>Alternative zu Dorogawa: Wasserfall-Meditation + historisches Ninja-Trainingsgelände<br/><a href="https://www.google.com/maps/search/?api=1&query=34.5636079,136.0857439&query_place_id=ChIJ57-XctCtBmARdPODK8v8VSw">In Google Maps öffnen</a>]]></description><styleUrl>#natur_aktiv</styleUrl><Point><coordinates>136.0857439,34.5636079,0</coordinates></Point></Placemark>
<Placemark><name>030 · Akameguchi (Bahnhof für Akame)</name><description><![CDATA[<b>Natur &amp; Aktiv</b><br/>Umstieg in den Bus zu den Akame-Wasserfällen; letzte Rückfahrt ~15:45 beachten<br/><a href="https://www.google.com/maps/search/?api=1&query=34.5998307,136.0746011&query_place_id=ChIJF4bCxGytBmAR_LMH1gyBJNY">In Google Maps öffnen</a>]]></description><styleUrl>#natur_aktiv</styleUrl><Point><coordinates>136.0746011,34.5998307,0</coordinates></Point></Placemark>
<Placemark><name>031 · Gokurakubashi (Seilbahnstation)</name><description><![CDATA[<b>Natur &amp; Aktiv</b><br/>Umstieg von der Nankai-Bahn in die Standseilbahn; Umsteigezeit ist knapp<br/><a href="https://www.google.com/maps/search/?api=1&query=34.2339696,135.5822388&query_place_id=ChIJq3TtIZYnB2ARwStuEfmOx7w">In Google Maps öffnen</a>]]></description><styleUrl>#natur_aktiv</styleUrl><Point><coordinates>135.5822388,34.2339696,0</coordinates></Point></Placemark>
<Placemark><name>032 · Kobe Nunobiki Kräutergarten &amp; Seilbahn</name><description><![CDATA[<b>Natur &amp; Aktiv</b><br/>Tagesausflug: Seilbahn ab Shin-Kobe, Wasserfälle, Panorama über die Bucht<br/><a href="https://www.google.com/maps/search/?api=1&query=34.7044275,135.1938755&query_place_id=ChIJWapiVtGOAGARVY9nvX-kXII">In Google Maps öffnen</a>]]></description><styleUrl>#natur_aktiv</styleUrl><Point><coordinates>135.1938755,34.7044275,0</coordinates></Point></Placemark>
<Placemark><name>033 · Mitarai-Schlucht</name><description><![CDATA[<b>Natur &amp; Aktiv</b><br/>Tageswanderung: türkise Gumpen, Hängebrücken, Herbstfarben<br/><a href="https://www.google.com/maps/search/?api=1&query=34.2359005,135.8755448&query_place_id=ChIJUebdDc7rBmARAbSSJE823KM">In Google Maps öffnen</a>]]></description><styleUrl>#natur_aktiv</styleUrl><Point><coordinates>135.8755448,34.2359005,0</coordinates></Point></Placemark>
<Placemark><name>034 · Dorogawa Onsen (Ortszentrum)</name><description><![CDATA[<b>Übernachten</b><br/>Laternendorf; Ryokan mit Privatbad wählen (Tattoo)<br/><a href="https://www.google.com/maps/search/?api=1&query=34.2631686,135.8769039&query_place_id=ChIJjeT0ZwDBBmAR6zChnEg0F-g">In Google Maps öffnen</a>]]></description><styleUrl>#übernachten</styleUrl><Point><coordinates>135.8769039,34.2631686,0</coordinates></Point></Placemark>
<Placemark><name>035 · Eko-in (Tempelübernachtung)</name><description><![CDATA[<b>Übernachten</b><br/>Ausländerfreundlichstes Shukubo: Meditation, Goma-Feuerritual, Okunoin-Nachtführung<br/><a href="https://www.google.com/maps/search/?api=1&query=34.2123167,135.5938011&query_place_id=ChIJl7v99GYnB2AR7wcK-LKwp_M">In Google Maps öffnen</a>]]></description><styleUrl>#übernachten</styleUrl><Point><coordinates>135.5938011,34.2123167,0</coordinates></Point></Placemark>
<Placemark><name>036 · Ryokan Kadojin</name><description><![CDATA[<b>Übernachten</b><br/>350 Jahre alt, nur 8 Zimmer mitten im Laternendorf; Zimmer mit eigenem Rotenburo, Wildschwein-Hotpot<br/><a href="https://www.google.com/maps/search/?api=1&query=34.2685655,135.8809956&query_place_id=ChIJVRq_u0DABmARrB83Rom_UYU">In Google Maps öffnen</a>]]></description><styleUrl>#übernachten</styleUrl><Point><coordinates>135.8809956,34.2685655,0</coordinates></Point></Placemark>
<Placemark><name>037 · Ryokan Misenkan</name><description><![CDATA[<b>Übernachten</b><br/>4,8 Sterne - Privatbad mit Blick auf Fluss und Wald, Bergküche, Wirt fährt Gäste zum Schrein<br/><a href="https://www.google.com/maps/search/?api=1&query=34.2453451,135.8559687&query_place_id=ChIJJ16lh9rBBmARhzMRdjvqcIU">In Google Maps öffnen</a>]]></description><styleUrl>#übernachten</styleUrl><Point><coordinates>135.8559687,34.2453451,0</coordinates></Point></Placemark>
<Placemark><name>038 · Sekishoin (Tempelübernachtung)</name><description><![CDATA[<b>Übernachten</b><br/>Alternative zu Eko-in: Zimmer mit eigenem Bad buchbar, ruhiger und weniger touristisch<br/><a href="https://www.google.com/maps/search/?api=1&query=34.2132891,135.5940158&query_place_id=ChIJR6JWhmYnB2AR8M4_SAav0jw">In Google Maps öffnen</a>]]></description><styleUrl>#übernachten</styleUrl><Point><coordinates>135.5940158,34.2132891,0</coordinates></Point></Placemark>
</Folder>
<Folder><name>Kyoto — Zentrum</name>
<Placemark><name>039 · Daitoku-ji</name><description><![CDATA[<b>Kultur</b><br/>Zen-Untertempel ohne Gedränge<br/><a href="https://www.google.com/maps/search/?api=1&query=35.043891,135.74603&query_place_id=ChIJj-9V6PgHAWARobrWGXEGn58">In Google Maps öffnen</a>]]></description><styleUrl>#kultur</styleUrl><Point><coordinates>135.74603,35.043891,0</coordinates></Point></Placemark>
<Placemark><name>040 · Fushimi Inari Taisha</name><description><![CDATA[<b>Kultur</b><br/>24 h offen: nach 20 Uhr im Laternenlicht fast leer<br/><a href="https://www.google.com/maps/search/?api=1&query=34.9676945,135.7791876&query_place_id=ChIJIW0uPRUPAWAR6eI6dRzKGns">In Google Maps öffnen</a>]]></description><styleUrl>#kultur</styleUrl><Point><coordinates>135.7791876,34.9676945,0</coordinates></Point></Placemark>
<Placemark><name>041 · Gion Corner</name><description><![CDATA[<b>Kultur</b><br/>Kompakte Kultur-Show: sieben traditionelle Künste in ~50 Min.; vorab buchen<br/><a href="https://www.google.com/maps/search/?api=1&query=35.001393,135.7755068&query_place_id=ChIJfwHp8MAIAWARSg0O3EYOO7o">In Google Maps öffnen</a>]]></description><styleUrl>#kultur</styleUrl><Point><coordinates>135.7755068,35.001393,0</coordinates></Point></Placemark>
<Placemark><name>042 · Kinkaku-ji</name><description><![CDATA[<b>Kultur</b><br/>Goldener Pavillon; früh oder kurz vor Schließung<br/><a href="https://www.google.com/maps/search/?api=1&query=35.03937,135.7292431&query_place_id=ChIJvUbrwCCoAWARX2QiHCsn5A4">In Google Maps öffnen</a>]]></description><styleUrl>#kultur</styleUrl><Point><coordinates>135.7292431,35.03937,0</coordinates></Point></Placemark>
<Placemark><name>043 · Kiyomizu-dera</name><description><![CDATA[<b>Kultur</b><br/>Der Regentag-Tipp: im Nebelregen leerer und schöner<br/><a href="https://www.google.com/maps/search/?api=1&query=34.9946662,135.784661&query_place_id=ChIJB_vchdMIAWARujTEUIZlr2I">In Google Maps öffnen</a>]]></description><styleUrl>#kultur</styleUrl><Point><coordinates>135.784661,34.9946662,0</coordinates></Point></Placemark>
<Placemark><name>044 · Otagi Nenbutsu-ji</name><description><![CDATA[<b>Kultur</b><br/>Ruhigere Alternative: 1.200 moosbewachsene Steinfiguren<br/><a href="https://www.google.com/maps/search/?api=1&query=35.0311428,135.6615546&query_place_id=ChIJi3CsmTmqAWAR0pV6QRGvt1c">In Google Maps öffnen</a>]]></description><styleUrl>#kultur</styleUrl><Point><coordinates>135.6615546,35.0311428,0</coordinates></Point></Placemark>
<Placemark><name>045 · Ryoan-ji</name><description><![CDATA[<b>Kultur</b><br/>Der berühmteste Zen-Steingarten; liegt 10 Gehminuten vom Kinkaku-ji<br/><a href="https://www.google.com/maps/search/?api=1&query=35.0344943,135.7182634&query_place_id=ChIJp7ocMCqoAWARQoXXRj4Xq-E">In Google Maps öffnen</a>]]></description><styleUrl>#kultur</styleUrl><Point><coordinates>135.7182634,35.0344943,0</coordinates></Point></Placemark>
<Placemark><name>046 · Tenryu-ji</name><description><![CDATA[<b>Kultur</b><br/>Arashiyama: Garten mit Sogen-Teich, früh um 9 Uhr fast leer<br/><a href="https://www.google.com/maps/search/?api=1&query=35.0158379,135.6737654&query_place_id=ChIJk54PuAGqAWARwEgz_9o-nM0">In Google Maps öffnen</a>]]></description><styleUrl>#kultur</styleUrl><Point><coordinates>135.6737654,35.0158379,0</coordinates></Point></Placemark>
<Placemark><name>047 · To-ji</name><description><![CDATA[<b>Kultur</b><br/>Japans höchste Holzpagode; hier findet am 21. der große Trödelmarkt statt<br/><a href="https://www.google.com/maps/search/?api=1&query=34.9803395,135.7476935&query_place_id=ChIJTar7hQQGAWAREHkXsNkt7tM">In Google Maps öffnen</a>]]></description><styleUrl>#kultur</styleUrl><Point><coordinates>135.7476935,34.9803395,0</coordinates></Point></Placemark>
<Placemark><name>048 · Miyagawacho</name><description><![CDATA[<b>Essen &amp; Trinken</b><br/>Das zweite Geisha-Viertel - gleiche Fassaden, kaum Fotografen<br/><a href="https://www.google.com/maps/search/?api=1&query=34.9995909,135.7714592&query_place_id=ChIJiQNFqcAIAWARo7tPQYiew9A">In Google Maps öffnen</a>]]></description><styleUrl>#essen_trinken</styleUrl><Point><coordinates>135.7714592,34.9995909,0</coordinates></Point></Placemark>
<Placemark><name>049 · Nishiki-Markt</name><description><![CDATA[<b>Essen &amp; Trinken</b><br/>Markthalle im Zentrum; Bargeld mitnehmen<br/><a href="https://www.google.com/maps/search/?api=1&query=35.0050258,135.764723&query_place_id=ChIJT8uMzZwIAWARnGzsARCjnrY">In Google Maps öffnen</a>]]></description><styleUrl>#essen_trinken</styleUrl><Point><coordinates>135.764723,35.0050258,0</coordinates></Point></Placemark>
<Placemark><name>050 · Pontocho</name><description><![CDATA[<b>Essen &amp; Trinken</b><br/>Enge Flussgasse mit Bars; abends<br/><a href="https://www.google.com/maps/search/?api=1&query=35.0039339,135.7710439&query_place_id=ChIJP2DblBgJAWARAgLlF0vWT6o">In Google Maps öffnen</a>]]></description><styleUrl>#essen_trinken</styleUrl><Point><coordinates>135.7710439,35.0039339,0</coordinates></Point></Placemark>
<Placemark><name>051 · Chicago Kyoto (Teramachi)</name><description><![CDATA[<b>Einkaufen &amp; Handwerk</b><br/>2. Stock komplett Kimono, ~6.000 Stück ab 2.000 Yen<br/><a href="https://www.google.com/maps/search/?api=1&query=35.0066792,135.7668036&query_place_id=ChIJT0Hu5JMIAWARWaI-T0hdkm8">In Google Maps öffnen</a>]]></description><styleUrl>#einkaufen_handwerk</styleUrl><Point><coordinates>135.7668036,35.0066792,0</coordinates></Point></Placemark>
<Placemark><name>052 · Modoribashi Shashinkan</name><description><![CDATA[<b>Einkaufen &amp; Handwerk</b><br/>Antik-Kimono, 3. Stock alles 500 Yen; 13-18 Uhr, Do geschlossen<br/><a href="https://www.google.com/maps/search/?api=1&query=35.0250657,135.7501503&query_place_id=ChIJf6GyI98HAWARDXxSptm1Sl8">In Google Maps öffnen</a>]]></description><styleUrl>#einkaufen_handwerk</styleUrl><Point><coordinates>135.7501503,35.0250657,0</coordinates></Point></Placemark>
<Placemark><name>053 · Torin-in (Shojin Ryori)</name><description><![CDATA[<b>Einkaufen &amp; Handwerk</b><br/>Keine Übernachtung, aber Shojin-Ryori-Erlebnis Di+Fr, Shojin-Lunch am Wochenende; Mitte Oktober Laternen-Lichterfest<br/><a href="https://www.google.com/maps/search/?api=1&query=35.0229854,135.7224094&query_place_id=ChIJBXDIXJoHAWARBAdRToZKaeU">In Google Maps öffnen</a>]]></description><styleUrl>#einkaufen_handwerk</styleUrl><Point><coordinates>135.7224094,35.0229854,0</coordinates></Point></Placemark>
<Placemark><name>054 · Arashiyama Bambushain</name><description><![CDATA[<b>Natur &amp; Aktiv</b><br/>Vor 8 Uhr hin, sonst Menschenstrom<br/><a href="https://www.google.com/maps/search/?api=1&query=35.0168187,135.6713013&query_place_id=ChIJrYtcv-urAWAR3XzWvXv8n_s">In Google Maps öffnen</a>]]></description><styleUrl>#natur_aktiv</styleUrl><Point><coordinates>135.6713013,35.0168187,0</coordinates></Point></Placemark>
<Placemark><name>055 · Iwatayama-Affenpark</name><description><![CDATA[<b>Natur &amp; Aktiv</b><br/>20 Min. Aufstieg, Makaken und der beste Blick über Kyoto<br/><a href="https://www.google.com/maps/search/?api=1&query=35.011395,135.6766245&query_place_id=ChIJvUn7bqsAAWARsjQHQ7CTNBs">In Google Maps öffnen</a>]]></description><styleUrl>#natur_aktiv</styleUrl><Point><coordinates>135.6766245,35.011395,0</coordinates></Point></Placemark>
<Placemark><name>056 · Daishin-in (Tempelübernachtung)</name><description><![CDATA[<b>Übernachten</b><br/>~¥5.000 - man schläft im Tempel selbst, Tatami mit Zen-Gartenblick. Reservierung NUR telefonisch auf Japanisch: 075-461-5714<br/><a href="https://www.google.com/maps/search/?api=1&query=35.0229625,135.7211674&query_place_id=ChIJqxa8qpsHAWARrCiP40rHsjg">In Google Maps öffnen</a>]]></description><styleUrl>#übernachten</styleUrl><Point><coordinates>135.7211674,35.0229625,0</coordinates></Point></Placemark>
<Placemark><name>057 · Shunko-in (Tempelübernachtung)</name><description><![CDATA[<b>Übernachten</b><br/>Zen-Meditation auf Englisch; Zimmer für 2-3 Personen<br/><a href="https://www.google.com/maps/search/?api=1&query=35.0240552,135.7195071&query_place_id=ChIJq7v2UZsHAWARXkzyx5VseK8">In Google Maps öffnen</a>]]></description><styleUrl>#übernachten</styleUrl><Point><coordinates>135.7195071,35.0240552,0</coordinates></Point></Placemark>
</Folder>
<Folder><name>Kyoto — Ausflüge</name>
<Placemark><name>058 · Byodo-in (Uji)</name><description><![CDATA[<b>Kultur</b><br/>Der Tempel auf der 10-Yen-Münze<br/><a href="https://www.google.com/maps/search/?api=1&query=34.8892908,135.8076783&query_place_id=ChIJqyva4AwRAWARpAf6j5MUhGA">In Google Maps öffnen</a>]]></description><styleUrl>#kultur</styleUrl><Point><coordinates>135.8076783,34.8892908,0</coordinates></Point></Placemark>
<Placemark><name>059 · Heijo-Palast (Nara)</name><description><![CDATA[<b>Kultur</b><br/>Kaiserpalast des 8. Jh., riesig, kostenlos und fast leer<br/><a href="https://www.google.com/maps/search/?api=1&query=34.6865079,135.7942516&query_place_id=ChIJFZVuxKM7AWARd4rzIg38E70">In Google Maps öffnen</a>]]></description><styleUrl>#kultur</styleUrl><Point><coordinates>135.7942516,34.6865079,0</coordinates></Point></Placemark>
<Placemark><name>060 · Sanzen-in (Ohara)</name><description><![CDATA[<b>Kultur</b><br/>Ruhigere Alternative zu Kinkaku-ji: Moosgärten, Bergdorf-Stille<br/><a href="https://www.google.com/maps/search/?api=1&query=35.119726,135.8344058&query_place_id=ChIJE6oLWdagAWARNC8P8LkIKlM">In Google Maps öffnen</a>]]></description><styleUrl>#kultur</styleUrl><Point><coordinates>135.8344058,35.119726,0</coordinates></Point></Placemark>
<Placemark><name>061 · Todai-ji (Nara)</name><description><![CDATA[<b>Kultur</b><br/>Tagesausflug: Großer Buddha<br/><a href="https://www.google.com/maps/search/?api=1&query=34.6889851,135.8398158&query_place_id=ChIJ3XYIepA5AWARjzzVnT-skPg">In Google Maps öffnen</a>]]></description><styleUrl>#kultur</styleUrl><Point><coordinates>135.8398158,34.6889851,0</coordinates></Point></Placemark>
<Placemark><name>062 · Byodo-in Omotesando (Uji)</name><description><![CDATA[<b>Essen &amp; Trinken</b><br/>Die Teestraße: alte Uji-Teehäuser, Matcha in jeder Form<br/><a href="https://www.google.com/maps/search/?api=1&query=34.891707,135.806012&query_place_id=ChIJy9Uz30ERAWARP3Sz9DkSW2w">In Google Maps öffnen</a>]]></description><styleUrl>#essen_trinken</styleUrl><Point><coordinates>135.806012,34.891707,0</coordinates></Point></Placemark>
<Placemark><name>063 · Gekkeikan Okura Sake-Museum</name><description><![CDATA[<b>Essen &amp; Trinken</b><br/>Fushimi-Sake-Viertel: Verkostung, Kanäle, Weidenbäume<br/><a href="https://www.google.com/maps/search/?api=1&query=34.929136,135.76161&query_place_id=ChIJLZRyoJIPAWAR0xnG_CrMzn4">In Google Maps öffnen</a>]]></description><styleUrl>#essen_trinken</styleUrl><Point><coordinates>135.76161,34.929136,0</coordinates></Point></Placemark>
<Placemark><name>064 · Tsuen Tea (Uji)</name><description><![CDATA[<b>Essen &amp; Trinken</b><br/>Ältestes Teehaus der Welt, seit 1160 in 24. Generation - Matcha-Soba am Fluss<br/><a href="https://www.google.com/maps/search/?api=1&query=34.89329,135.8072759&query_place_id=ChIJW7lOHQsRAWARQdYdv9VcLR0">In Google Maps öffnen</a>]]></description><styleUrl>#essen_trinken</styleUrl><Point><coordinates>135.8072759,34.89329,0</coordinates></Point></Placemark>
<Placemark><name>065 · Taihoan (Uji)</name><description><![CDATA[<b>Einkaufen &amp; Handwerk</b><br/>Städtisches Teehaus: Teezeremonie, authentisch und günstig<br/><a href="https://www.google.com/maps/search/?api=1&query=34.8890163,135.808708&query_place_id=ChIJpwPkLQ0RAWAR_oYLmZjsoH4">In Google Maps öffnen</a>]]></description><styleUrl>#einkaufen_handwerk</styleUrl><Point><coordinates>135.808708,34.8890163,0</coordinates></Point></Placemark>
<Placemark><name>066 · Nara-Park (Rehe)</name><description><![CDATA[<b>Natur &amp; Aktiv</b><br/>In der Daemmerung bleiben, wenn die Tagesbusse abfahren<br/><a href="https://www.google.com/maps/search/?api=1&query=34.685047,135.843012&query_place_id=ChIJYWCMvZY5AWARVnREV_OsbPk">In Google Maps öffnen</a>]]></description><styleUrl>#natur_aktiv</styleUrl><Point><coordinates>135.843012,34.685047,0</coordinates></Point></Placemark>
<Placemark><name>067 · Jorenge-in (Ohara, Tempelherberge)</name><description><![CDATA[<b>Übernachten</b><br/>Bergtempel mit Morgenandacht, Zazen, Sutra-Abschreiben und Bergküche, ~¥8.000<br/><a href="https://www.google.com/maps/search/?api=1&query=35.1187701,135.8367616&query_place_id=ChIJi0JvMQChAWARtgAjs2zqyuc">In Google Maps öffnen</a>]]></description><styleUrl>#übernachten</styleUrl><Point><coordinates>135.8367616,35.1187701,0</coordinates></Point></Placemark>
</Folder>
<Folder><name>Kanazawa — Zentrum</name>
<Placemark><name>068 · Ashigaru-Museum</name><description><![CDATA[<b>Kultur</b><br/>Häuser einfacher Fußsoldaten - informativer als das Nomura-Haus und gratis<br/><a href="https://www.google.com/maps/search/?api=1&query=36.5659126,136.6498538&query_place_id=ChIJR2o_Mnwz-F8RTJdAGan3YLY">In Google Maps öffnen</a>]]></description><styleUrl>#kultur</styleUrl><Point><coordinates>136.6498538,36.5659126,0</coordinates></Point></Placemark>
<Placemark><name>069 · D.T.-Suzuki-Museum</name><description><![CDATA[<b>Kultur</b><br/>Architektur wie Meditation; Ort der Stille<br/><a href="https://www.google.com/maps/search/?api=1&query=36.5576632,136.6609126&query_place_id=ChIJBRk3CXg0-F8RYaKpk9GoiiE">In Google Maps öffnen</a>]]></description><styleUrl>#kultur</styleUrl><Point><coordinates>136.6609126,36.5576632,0</coordinates></Point></Placemark>
<Placemark><name>070 · Higashi Chaya</name><description><![CDATA[<b>Kultur</b><br/>Geisha-Viertel, Blattgold-Läden<br/><a href="https://www.google.com/maps/search/?api=1&query=36.5725825,136.6665601&query_place_id=ChIJsfC6oXQz-F8RdA1qXiF6jLs">In Google Maps öffnen</a>]]></description><styleUrl>#kultur</styleUrl><Point><coordinates>136.6665601,36.5725825,0</coordinates></Point></Placemark>
<Placemark><name>071 · Kanazawa-jo</name><description><![CDATA[<b>Kultur</b><br/>Burgpark; Gyokusen&#x27;inmaru-Garten abends illuminiert, Eintritt frei<br/><a href="https://www.google.com/maps/search/?api=1&query=36.5659458,136.6588451&query_place_id=ChIJlUfxPYIz-F8RSh7ml54YJ6g">In Google Maps öffnen</a>]]></description><styleUrl>#kultur</styleUrl><Point><coordinates>136.6588451,36.5659458,0</coordinates></Point></Placemark>
<Placemark><name>072 · Myoryu-ji (Ninja-Tempel)</name><description><![CDATA[<b>Kultur</b><br/>Geheimgänge und Fallen der Maeda; Reservierung nötig<br/><a href="https://www.google.com/maps/search/?api=1&query=36.5553843,136.6489974&query_place_id=ChIJuYLrXHs0-F8RGY1Ld3voBB4">In Google Maps öffnen</a>]]></description><styleUrl>#kultur</styleUrl><Point><coordinates>136.6489974,36.5553843,0</coordinates></Point></Placemark>
<Placemark><name>073 · Nagamachi (Samurai-Viertel)</name><description><![CDATA[<b>Kultur</b><br/>Lehmmauern und Kanäle; früh morgens ohne Gruppen<br/><a href="https://www.google.com/maps/search/?api=1&query=36.5637517,136.6510146&query_place_id=ChIJhycOJtYz-F8RO54LaTG6_p0">In Google Maps öffnen</a>]]></description><styleUrl>#kultur</styleUrl><Point><coordinates>136.6510146,36.5637517,0</coordinates></Point></Placemark>
<Placemark><name>074 · Nomura-Samurai-Haus</name><description><![CDATA[<b>Kultur</b><br/>Restaurierte Samurai-Residenz mit berühmtem Miniaturgarten<br/><a href="https://www.google.com/maps/search/?api=1&query=36.5642058,136.6500324&query_place_id=ChIJF_AqPH4z-F8Rmtm1IKiShVQ">In Google Maps öffnen</a>]]></description><styleUrl>#kultur</styleUrl><Point><coordinates>136.6500324,36.5642058,0</coordinates></Point></Placemark>
<Placemark><name>075 · Omicho-Markt</name><description><![CDATA[<b>Essen &amp; Trinken</b><br/>Kaisendon und Nodoguro; früh die hinteren Stände ansteuern<br/><a href="https://www.google.com/maps/search/?api=1&query=36.5717335,136.6558651&query_place_id=ChIJ0xPT93Az-F8RpTSlbHwo9L8">In Google Maps öffnen</a>]]></description><styleUrl>#essen_trinken</styleUrl><Point><coordinates>136.6558651,36.5717335,0</coordinates></Point></Placemark>
<Placemark><name>076 · Kanazawa Kominge Kaikan</name><description><![CDATA[<b>Einkaufen &amp; Handwerk</b><br/>Antikhaus: Tansu-Kommoden, Holzmöbel; nur Bargeld, Di geschlossen<br/><a href="https://www.google.com/maps/search/?api=1&query=36.5553728,136.635772&query_place_id=ChIJ-betFIo0-F8Rc5uytq6sm7Q">In Google Maps öffnen</a>]]></description><styleUrl>#einkaufen_handwerk</styleUrl><Point><coordinates>136.635772,36.5553728,0</coordinates></Point></Placemark>
<Placemark><name>077 · Kenroku-en</name><description><![CDATA[<b>Natur &amp; Aktiv</b><br/>Einer der drei schönsten Gärten Japans<br/><a href="https://www.google.com/maps/search/?api=1&query=36.5621278,136.6626515&query_place_id=ChIJBVmy-YMz-F8R5PID8D17Cpc">In Google Maps öffnen</a>]]></description><styleUrl>#natur_aktiv</styleUrl><Point><coordinates>136.6626515,36.5621278,0</coordinates></Point></Placemark>
<Placemark><name>078 · Ryokan Sumiyoshiya</name><description><![CDATA[<b>Übernachten</b><br/>300 Jahre alt, 1 Min. vom Omicho-Markt, englischsprachig<br/><a href="https://www.google.com/maps/search/?api=1&query=36.5705046,136.6580886&query_place_id=ChIJg3h543Az-F8R68PfUp5dC-c">In Google Maps öffnen</a>]]></description><styleUrl>#übernachten</styleUrl><Point><coordinates>136.6580886,36.5705046,0</coordinates></Point></Placemark>
</Folder>
<Folder><name>Takayama — Zentrum</name>
<Placemark><name>079 · Sanmachi-Suji</name><description><![CDATA[<b>Kultur</b><br/>Altstadtgasse; vor 9:30 oder nach 17 Uhr laufen<br/><a href="https://www.google.com/maps/search/?api=1&query=36.1413161,137.2596227&query_place_id=ChIJczG1tNu6AmARjrgU-Yh3zH8">In Google Maps öffnen</a>]]></description><styleUrl>#kultur</styleUrl><Point><coordinates>137.2596227,36.1413161,0</coordinates></Point></Placemark>
<Placemark><name>080 · Takayama Jinya</name><description><![CDATA[<b>Kultur</b><br/>Einziges erhaltenes Edo-Verwaltungsamt Japans<br/><a href="https://www.google.com/maps/search/?api=1&query=36.1396312,137.2576045&query_place_id=ChIJj29EXtm6AmAR4ZH1chH39Zg">In Google Maps öffnen</a>]]></description><styleUrl>#kultur</styleUrl><Point><coordinates>137.2576045,36.1396312,0</coordinates></Point></Placemark>
<Placemark><name>081 · Miyagawa-Morgenmarkt</name><description><![CDATA[<b>Essen &amp; Trinken</b><br/>7-12 Uhr am Fluss<br/><a href="https://www.google.com/maps/search/?api=1&query=36.144704,137.2579466&query_place_id=ChIJE-ywz9a6AmAR1uD5rAwvJkw">In Google Maps öffnen</a>]]></description><styleUrl>#essen_trinken</styleUrl><Point><coordinates>137.2579466,36.144704,0</coordinates></Point></Placemark>
<Placemark><name>082 · Higashiyama-Tempelweg</name><description><![CDATA[<b>Natur &amp; Aktiv</b><br/>Ruhigere Alternative: ~3,5 km stille Runde durchs Tempelviertel<br/><a href="https://www.google.com/maps/search/?api=1&query=36.1449631,137.2632852&query_place_id=ChIJ99T-4q67AmAR-m13onTdQ_w">In Google Maps öffnen</a>]]></description><styleUrl>#natur_aktiv</styleUrl><Point><coordinates>137.2632852,36.1449631,0</coordinates></Point></Placemark>
<Placemark><name>083 · Antique Inn Sumiyoshi</name><description><![CDATA[<b>Übernachten</b><br/>4,8 Sterne - altes Haus am Fluss, Wirtsleute kochen, kleines Onsen; das perfekte Alt-Japan-Erlebnis<br/><a href="https://www.google.com/maps/search/?api=1&query=36.1460233,137.2570301&query_place_id=ChIJM63nvda6AmAR4jKJ-VWsqYo">In Google Maps öffnen</a>]]></description><styleUrl>#übernachten</styleUrl><Point><coordinates>137.2570301,36.1460233,0</coordinates></Point></Placemark>
<Placemark><name>084 · Honjin Hiranoya Kofukan</name><description><![CDATA[<b>Übernachten</b><br/>Sehr ausländerfreundlich, Kaiseki mit Hida-Rind, Flussblick, Gepäckaufbewahrung<br/><a href="https://www.google.com/maps/search/?api=1&query=36.1402794,137.2587828&query_place_id=ChIJlY4zxdu6AmARNHQuwlXrUFs">In Google Maps öffnen</a>]]></description><styleUrl>#übernachten</styleUrl><Point><coordinates>137.2587828,36.1402794,0</coordinates></Point></Placemark>
<Placemark><name>085 · Hotel Takayama Ouan</name><description><![CDATA[<b>Übernachten</b><br/>Drei private Onsen-Bäder, tattoo-freundlich<br/><a href="https://www.google.com/maps/search/?api=1&query=36.1386977,137.2519786&query_place_id=ChIJcc04vCe7AmART66G1eelXXA">In Google Maps öffnen</a>]]></description><styleUrl>#übernachten</styleUrl><Point><coordinates>137.2519786,36.1386977,0</coordinates></Point></Placemark>
<Placemark><name>086 · Iroriyado Hidaya</name><description><![CDATA[<b>Übernachten</b><br/>130 Jahre altes Wohnhaus mit Holzkohle-Feuerstelle im Zimmer; Onsen zeitweise tattoo-freundlich, abends privat mietbar<br/><a href="https://www.google.com/maps/search/?api=1&query=36.130221,137.248081&query_place_id=ChIJlS16GyK7AmAR8scmyyBJpUo">In Google Maps öffnen</a>]]></description><styleUrl>#übernachten</styleUrl><Point><coordinates>137.248081,36.130221,0</coordinates></Point></Placemark>
<Placemark><name>087 · Minshuku Sosuke</name><description><![CDATA[<b>Übernachten</b><br/>Fast 200 Jahre altes Haus, Irori, Gemeinschaftsbad, sehr sparsame Zimmer - das ehrlichste Rustikal-Erlebnis<br/><a href="https://www.google.com/maps/search/?api=1&query=36.138374,137.247893&query_place_id=ChIJZzIL-CW7AmAR8cK1-qqs8Aw">In Google Maps öffnen</a>]]></description><styleUrl>#übernachten</styleUrl><Point><coordinates>137.247893,36.138374,0</coordinates></Point></Placemark>
</Folder>
<Folder><name>Takayama — Ausflüge</name>
<Placemark><name>088 · Ainokura (Gokayama)</name><description><![CDATA[<b>Natur &amp; Aktiv</b><br/>Ruhigere Alternative: gleiche Strohdächer, Bruchteil der Besucher<br/><a href="https://www.google.com/maps/search/?api=1&query=36.4260061,136.9354778&query_place_id=ChIJseVkTg4W-F8RegJ6zJErGlU">In Google Maps öffnen</a>]]></description><styleUrl>#natur_aktiv</styleUrl><Point><coordinates>136.9354778,36.4260061,0</coordinates></Point></Placemark>
<Placemark><name>089 · Hida Furukawa</name><description><![CDATA[<b>Natur &amp; Aktiv</b><br/>15 Min. Zug: weisse Speicher, Karpfen-Kanäle, fast keine Ausländer<br/><a href="https://www.google.com/maps/search/?api=1&query=36.2353207,137.1867874&query_place_id=ChIJh6IDmeWgAmARisGVD1qfPKc">In Google Maps öffnen</a>]]></description><styleUrl>#natur_aktiv</styleUrl><Point><coordinates>137.1867874,36.2353207,0</coordinates></Point></Placemark>
<Placemark><name>090 · Shirakawa-go (Ogimachi)</name><description><![CDATA[<b>Natur &amp; Aktiv</b><br/>UNESCO-Gassho-Dörfer; Halbtagesausflug<br/><a href="https://www.google.com/maps/search/?api=1&query=36.2550982,136.9022991&query_place_id=ChIJZS8K5LBx-F8R3iMSHZ_7Tis">In Google Maps öffnen</a>]]></description><styleUrl>#natur_aktiv</styleUrl><Point><coordinates>136.9022991,36.2550982,0</coordinates></Point></Placemark>
<Placemark><name>091 · Wanosato (Minka-Ryokan)</name><description><![CDATA[<b>Übernachten</b><br/>160+ Jahre altes Bauernhaus mit Gassho-Strohdach, Irori-Feuerstelle, 8 Zimmer, am Fluss; Abholung ab Bahnhof<br/><a href="https://www.google.com/maps/search/?api=1&query=36.0731892,137.2104369&query_place_id=ChIJ8YOG5gu8AmARwRZiLryzYRs">In Google Maps öffnen</a>]]></description><styleUrl>#übernachten</styleUrl><Point><coordinates>137.2104369,36.0731892,0</coordinates></Point></Placemark>
</Folder>
<Folder><name>Hakone — Zentrum</name>
<Placemark><name>092 · Hakone-Freilichtmuseum</name><description><![CDATA[<b>Kultur</b><br/>Skulpturen im Bergpanorama<br/><a href="https://www.google.com/maps/search/?api=1&query=35.2451601,139.0507271&query_place_id=ChIJMfOWowSiGWARX2wK6ac5jlg">In Google Maps öffnen</a>]]></description><styleUrl>#kultur</styleUrl><Point><coordinates>139.0507271,35.2451601,0</coordinates></Point></Placemark>
<Placemark><name>093 · Hakone-Schrein</name><description><![CDATA[<b>Kultur</b><br/>Rotes Torii im Wasser; früh morgens hin<br/><a href="https://www.google.com/maps/search/?api=1&query=35.2048263,139.0253782&query_place_id=ChIJtcIqzYuYGWARmuDHR2ij5Ko">In Google Maps öffnen</a>]]></description><styleUrl>#kultur</styleUrl><Point><coordinates>139.0253782,35.2048263,0</coordinates></Point></Placemark>
<Placemark><name>094 · Hakone-Sekisho</name><description><![CDATA[<b>Kultur</b><br/>Rekonstruierte Kontrollstation der Tokaido-Straße<br/><a href="https://www.google.com/maps/search/?api=1&query=35.1923709,139.0262346&query_place_id=ChIJ8xdp8WSYGWARRaUVLnalZyM">In Google Maps öffnen</a>]]></description><styleUrl>#kultur</styleUrl><Point><coordinates>139.0262346,35.1923709,0</coordinates></Point></Placemark>
<Placemark><name>096 · Amazake-chaya</name><description><![CDATA[<b>Essen &amp; Trinken</b><br/>400 Jahre alte Teestube an der alten Tokaido-Zedernallee<br/><a href="https://www.google.com/maps/search/?api=1&query=35.2022356,139.0487714&query_place_id=ChIJ7XvjLIeiGWARC9MOeCs7c8k">In Google Maps öffnen</a>]]></description><styleUrl>#essen_trinken</styleUrl><Point><coordinates>139.0487714,35.2022356,0</coordinates></Point></Placemark>
<Placemark><name>096 · Amazake-chaya (alte Tokaido-Straße)</name><description><![CDATA[<b>Essen &amp; Trinken</b><br/>400 Jahre alte Teestube an der Zedernallee - der historische Reiseweg nach Edo<br/><a href="https://www.google.com/maps/search/?api=1&query=35.2022356,139.0487714&query_place_id=ChIJ7XvjLIeiGWARC9MOeCs7c8k">In Google Maps öffnen</a>]]></description><styleUrl>#essen_trinken</styleUrl><Point><coordinates>139.0487714,35.2022356,0</coordinates></Point></Placemark>
<Placemark><name>097 · Ashi-See</name><description><![CDATA[<b>Natur &amp; Aktiv</b><br/>Piratenschiff-Überfahrt; morgens die beste Fuji-Chance<br/><a href="https://www.google.com/maps/search/?api=1&query=35.2095674,139.0034626&query_place_id=ChIJoT-oK-mYGWARy-ItUPA6ekk">In Google Maps öffnen</a>]]></description><styleUrl>#natur_aktiv</styleUrl><Point><coordinates>139.0034626,35.2095674,0</coordinates></Point></Placemark>
<Placemark><name>098 · Ashinoko Club (Kajak)</name><description><![CDATA[<b>Natur &amp; Aktiv</b><br/>Geführte Kajaktouren 60-90 Min., u.a. zum schwimmenden Torii des Hakone-Schreins<br/><a href="https://www.google.com/maps/search/?api=1&query=35.1930556,139.0261111">In Google Maps öffnen</a>]]></description><styleUrl>#natur_aktiv</styleUrl><Point><coordinates>139.0261111,35.1930556,0</coordinates></Point></Placemark>
<Placemark><name>099 · Owakudani</name><description><![CDATA[<b>Natur &amp; Aktiv</b><br/>Dampfende Schwefelschlucht, schwarze Eier<br/><a href="https://www.google.com/maps/search/?api=1&query=35.2436011,139.0197304&query_place_id=ChIJfw3hyDefGWARilyx_0ZSqKE">In Google Maps öffnen</a>]]></description><styleUrl>#natur_aktiv</styleUrl><Point><coordinates>139.0197304,35.2436011,0</coordinates></Point></Placemark>
<Placemark><name>100 · Tenzan Onsen (Tagesbad)</name><description><![CDATA[<b>Natur &amp; Aktiv</b><br/>4,4 Sterne aus ~6.000 Bewertungen - tattoo-freundlich, 7 Freiluftbäder, Dampfbad mit Teeblättern; ~¥1.400, NUR BARGELD<br/><a href="https://www.google.com/maps/search/?api=1&query=35.2252429,139.0886999&query_place_id=ChIJp9Vk7AajGWARUYrjpXc1SYg">In Google Maps öffnen</a>]]></description><styleUrl>#natur_aktiv</styleUrl><Point><coordinates>139.0886999,35.2252429,0</coordinates></Point></Placemark>
<Placemark><name>101 · Bansuiro Fukuzumi (Ryokan)</name><description><![CDATA[<b>Übernachten</b><br/>1625 gegründet, erstes Ryokan als Wichtiges Kulturgut Japans; eigene Quelle, Zimmer mit Privatbad, Englisch, 5 Min. vom Bahnhof<br/><a href="https://www.google.com/maps/search/?api=1&query=35.2313317,139.0997163&query_place_id=ChIJedIy8QqjGWARn8QO_R6ggKk">In Google Maps öffnen</a>]]></description><styleUrl>#übernachten</styleUrl><Point><coordinates>139.0997163,35.2313317,0</coordinates></Point></Placemark>
<Placemark><name>102 · Fuji-Hakone Guest House</name><description><![CDATA[<b>Übernachten</b><br/>ALLE Bäder privat und ausdrücklich tattoo-freundlich; Owakudani-Quellwasser, englischsprachiger Gastgeber, günstig<br/><a href="https://www.google.com/maps/search/?api=1&query=35.2654751,139.0143522&query_place_id=ChIJY56z6Q6fGWARDBrE2h4BWME">In Google Maps öffnen</a>]]></description><styleUrl>#übernachten</styleUrl><Point><coordinates>139.0143522,35.2654751,0</coordinates></Point></Placemark>
<Placemark><name>103 · Fukuzumiro (historisches Holz-Ryokan)</name><description><![CDATA[<b>Übernachten</b><br/>4,7 Sterne aus ~600 Bewertungen - altes Holzhaus am Fluss, 3 private + 2 öffentliche Onsen (Tattoo gelöst), Service im Zimmer<br/><a href="https://www.google.com/maps/search/?api=1&query=35.232925,139.0946418&query_place_id=ChIJ93tkAaejGWARmleYor0hPTU">In Google Maps öffnen</a>]]></description><styleUrl>#übernachten</styleUrl><Point><coordinates>139.0946418,35.232925,0</coordinates></Point></Placemark>
<Placemark><name>104 · Gora Kansuirou</name><description><![CDATA[<b>Übernachten</b><br/>Privatbad im Zimmer + Rotenburo, 1 Min. vom Bahnhof Gora; Bewertungen gemischt (Preis/Zustand)<br/><a href="https://www.google.com/maps/search/?api=1&query=35.2491523,139.0493071&query_place_id=ChIJkcetZP-hGWARBihlqY6odqc">In Google Maps öffnen</a>]]></description><styleUrl>#übernachten</styleUrl><Point><coordinates>139.0493071,35.2491523,0</coordinates></Point></Placemark>
<Placemark><name>105 · Kinnotake Tonosawa</name><description><![CDATA[<b>Übernachten</b><br/>Gehobenes Ryokan über einer Schlucht; privates Rotenburo in jedem Zimmer, Tattoos kein Thema<br/><a href="https://www.google.com/maps/search/?api=1&query=35.2337293,139.0889301&query_place_id=ChIJm26t266jGWARmzWN5sy3TKc">In Google Maps öffnen</a>]]></description><styleUrl>#übernachten</styleUrl><Point><coordinates>139.0889301,35.2337293,0</coordinates></Point></Placemark>
<Placemark><name>106 · Tonosawa Ichinoyu Honkan (Ryokan)</name><description><![CDATA[<b>Übernachten</b><br/>1630, vierstöckiger Holzbau am Fluss; Zimmer mit privatem Rotenburo, tattoo-erfahren, gutes Preis-Leistung<br/><a href="https://www.google.com/maps/search/?api=1&query=35.2331731,139.0934361&query_place_id=ChIJN3cOE_yeGWARz-Y_gvhVFWo">In Google Maps öffnen</a>]]></description><styleUrl>#übernachten</styleUrl><Point><coordinates>139.0934361,35.2331731,0</coordinates></Point></Placemark>
</Folder>
<Folder><name>Tokio — Zentrum</name>
<Placemark><name>107 · Gotoku-ji</name><description><![CDATA[<b>Kultur</b><br/>Winkekatzen-Ursprungstempel<br/><a href="https://www.google.com/maps/search/?api=1&query=35.6488124,139.647481&query_place_id=ChIJVVUBmZ_zGGARrEy-Ua3psAY">In Google Maps öffnen</a>]]></description><styleUrl>#kultur</styleUrl><Point><coordinates>139.647481,35.6488124,0</coordinates></Point></Placemark>
<Placemark><name>108 · Meiji-Jingu</name><description><![CDATA[<b>Kultur</b><br/>Zur Öffnung bei Sonnenaufgang: Kies knirscht, sonst Stille<br/><a href="https://www.google.com/maps/search/?api=1&query=35.6763976,139.6993259&query_place_id=ChIJ5SZMmreMGGARcz8QSTiJyo8">In Google Maps öffnen</a>]]></description><styleUrl>#kultur</styleUrl><Point><coordinates>139.6993259,35.6763976,0</coordinates></Point></Placemark>
<Placemark><name>109 · Nezu-Schrein</name><description><![CDATA[<b>Kultur</b><br/>Eigener Mini-Torii-Tunnel, kaum Touristen<br/><a href="https://www.google.com/maps/search/?api=1&query=35.7201366,139.7607695&query_place_id=ChIJ-X4hzjKMGGARDSsGeHOACgw">In Google Maps öffnen</a>]]></description><styleUrl>#kultur</styleUrl><Point><coordinates>139.7607695,35.7201366,0</coordinates></Point></Placemark>
<Placemark><name>110 · Schwertmuseum Ryogoku</name><description><![CDATA[<b>Kultur</b><br/>Echte historische Klingen; Mo geschlossen<br/><a href="https://www.google.com/maps/search/?api=1&query=35.6989606,139.7936629&query_place_id=ChIJD1-Hg8qOGGARrTp2UJ6Be14">In Google Maps öffnen</a>]]></description><styleUrl>#kultur</styleUrl><Point><coordinates>139.7936629,35.6989606,0</coordinates></Point></Placemark>
<Placemark><name>111 · Sengaku-ji</name><description><![CDATA[<b>Kultur</b><br/>Gräber der 47 Ronin; Räucherstäbchen-Ritual möglich<br/><a href="https://www.google.com/maps/search/?api=1&query=35.6377397,139.7364006&query_place_id=ChIJh64KT6uLGGARKx4cxgOaL54">In Google Maps öffnen</a>]]></description><styleUrl>#kultur</styleUrl><Point><coordinates>139.7364006,35.6377397,0</coordinates></Point></Placemark>
<Placemark><name>112 · Senso-ji</name><description><![CDATA[<b>Kultur</b><br/>Nach 21 Uhr angestrahlt und leer - einer der schönsten Momente<br/><a href="https://www.google.com/maps/search/?api=1&query=35.7147651,139.7966553&query_place_id=ChIJ8T1GpMGOGGARDYGSgpooDWw">In Google Maps öffnen</a>]]></description><styleUrl>#kultur</styleUrl><Point><coordinates>139.7966553,35.7147651,0</coordinates></Point></Placemark>
<Placemark><name>113 · teamLab Borderless</name><description><![CDATA[<b>Kultur</b><br/>Die zweite teamLab-Welt (Azabudai Hills) - anders als Planets, kein Wasser<br/><a href="https://www.google.com/maps/search/?api=1&query=35.6620689,139.7432671&query_place_id=ChIJQ5Sa1PqJGGARUSaNKKOrMVg">In Google Maps öffnen</a>]]></description><styleUrl>#kultur</styleUrl><Point><coordinates>139.7432671,35.6620689,0</coordinates></Point></Placemark>
<Placemark><name>114 · teamLab Planets</name><description><![CDATA[<b>Kultur</b><br/>Zeitfenster vorab buchen<br/><a href="https://www.google.com/maps/search/?api=1&query=35.6491207,139.7897739&query_place_id=ChIJSeco5wiJGGARItbTS8lQ5G0">In Google Maps öffnen</a>]]></description><styleUrl>#kultur</styleUrl><Point><coordinates>139.7897739,35.6491207,0</coordinates></Point></Placemark>
<Placemark><name>115 · 2D Café</name><description><![CDATA[<b>Essen &amp; Trinken</b><br/>Comic-Optik: alles wirkt gezeichnet; in Shin-Okubo, ohne Reservierung<br/><a href="https://www.google.com/maps/search/?api=1&query=35.7001517,139.7007061&query_place_id=ChIJcYlyqrKNGGARPVEOuT73zjI">In Google Maps öffnen</a>]]></description><styleUrl>#essen_trinken</styleUrl><Point><coordinates>139.7007061,35.7001517,0</coordinates></Point></Placemark>
<Placemark><name>116 · DAWN Avatar Robot Café</name><description><![CDATA[<b>Essen &amp; Trinken</b><br/>Roboter werden von Menschen ferngesteuert, die das Haus nicht verlassen können - man unterhält sich mit ihnen<br/><a href="https://www.google.com/maps/search/?api=1&query=35.6893288,139.7761285&query_place_id=ChIJW37-maSJGGARAVfOsHNGMxg">In Google Maps öffnen</a>]]></description><styleUrl>#essen_trinken</styleUrl><Point><coordinates>139.7761285,35.6893288,0</coordinates></Point></Placemark>
<Placemark><name>117 · First Airlines Ikebukuro</name><description><![CDATA[<b>Essen &amp; Trinken</b><br/>Virtueller Erste-Klasse-Flug: echte Flugzeugsitze, VR-Reiseziel, Menü passend dazu<br/><a href="https://www.google.com/maps/search/?api=1&query=35.7309604,139.7056039&query_place_id=ChIJ8390W1mNGGARdfAADiFeGjI">In Google Maps öffnen</a>]]></description><styleUrl>#essen_trinken</styleUrl><Point><coordinates>139.7056039,35.7309604,0</coordinates></Point></Placemark>
<Placemark><name>118 · Fukumuro-an (Soba)</name><description><![CDATA[<b>Essen &amp; Trinken</b><br/>Kleines Soba-Lokal um die Ecke vom Winkekatzen-Tempel; Mo geschlossen<br/><a href="https://www.google.com/maps/search/?api=1&query=35.6505667,139.6459022&query_place_id=ChIJ9RUeEpzzGGARRDiUmN_P0uE">In Google Maps öffnen</a>]]></description><styleUrl>#essen_trinken</styleUrl><Point><coordinates>139.6459022,35.6505667,0</coordinates></Point></Placemark>
<Placemark><name>119 · Nakamise-dori</name><description><![CDATA[<b>Essen &amp; Trinken</b><br/>Ladenstraße zum Senso-ji; morgens vor Ladenöffnung menschenleer<br/><a href="https://www.google.com/maps/search/?api=1&query=35.7118413,139.7964542&query_place_id=ChIJPd37MMGOGGARvJ2hfxoiNVE">In Google Maps öffnen</a>]]></description><styleUrl>#essen_trinken</styleUrl><Point><coordinates>139.7964542,35.7118413,0</coordinates></Point></Placemark>
<Placemark><name>120 · Ninja Experience Café Asakusa</name><description><![CDATA[<b>Essen &amp; Trinken</b><br/>Ninja-Training mit Katana, Shuriken und Blasrohr + Essen; sehr gute Bewertungen<br/><a href="https://www.google.com/maps/search/?api=1&query=35.7170149,139.7918297&query_place_id=ChIJb9DD4ZSOGGARJBUezRn27mo">In Google Maps öffnen</a>]]></description><styleUrl>#essen_trinken</styleUrl><Point><coordinates>139.7918297,35.7170149,0</coordinates></Point></Placemark>
<Placemark><name>121 · Ninja Experience Café Harajuku</name><description><![CDATA[<b>Essen &amp; Trinken</b><br/>Gleiche Idee wie Asakusa, zentraler gelegen (B1 unter dem 539 Bldg.)<br/><a href="https://www.google.com/maps/search/?api=1&query=35.6709562,139.7049288&query_place_id=ChIJE3pSTlSNGGARD0KogbdRISw">In Google Maps öffnen</a>]]></description><styleUrl>#essen_trinken</styleUrl><Point><coordinates>139.7049288,35.6709562,0</coordinates></Point></Placemark>
<Placemark><name>122 · Nonbei Yokocho</name><description><![CDATA[<b>Essen &amp; Trinken</b><br/>Ruhigere Alternative zum Golden Gai: Mini-Bars mit Stammgästen<br/><a href="https://www.google.com/maps/search/?api=1&query=35.6599499,139.701533&query_place_id=ChIJpwDSAViLGGARVaJ_WUwQrt8">In Google Maps öffnen</a>]]></description><styleUrl>#essen_trinken</styleUrl><Point><coordinates>139.701533,35.6599499,0</coordinates></Point></Placemark>
<Placemark><name>123 · Omoide Yokocho</name><description><![CDATA[<b>Essen &amp; Trinken</b><br/>Yakitori-Gassen; früh am Abend<br/><a href="https://www.google.com/maps/search/?api=1&query=35.6927011,139.6995778&query_place_id=ChIJP9eKBdeMGGAR0zzBXJNVj5A">In Google Maps öffnen</a>]]></description><styleUrl>#essen_trinken</styleUrl><Point><coordinates>139.6995778,35.6927011,0</coordinates></Point></Placemark>
<Placemark><name>124 · Pokémon Café Nihonbashi</name><description><![CDATA[<b>Essen &amp; Trinken</b><br/>Nur mit Reservierung (Online-Losverfahren, sehr begehrt); Show am Mitteltisch<br/><a href="https://www.google.com/maps/search/?api=1&query=35.6806385,139.7744332&query_place_id=ChIJT5kFjFeJGGARJYhFoKi3lEE">In Google Maps öffnen</a>]]></description><styleUrl>#essen_trinken</styleUrl><Point><coordinates>139.7744332,35.6806385,0</coordinates></Point></Placemark>
<Placemark><name>125 · Samurai Restaurant Time</name><description><![CDATA[<b>Essen &amp; Trinken</b><br/>Neon-Dinnershow in Kabukicho, Nachfolger des Robot Restaurant; nur bis ~18 Uhr<br/><a href="https://www.google.com/maps/search/?api=1&query=35.6942728,139.7027663&query_place_id=ChIJ9eLvweSNGGARpLA8HtSkuC0">In Google Maps öffnen</a>]]></description><styleUrl>#essen_trinken</styleUrl><Point><coordinates>139.7027663,35.6942728,0</coordinates></Point></Placemark>
<Placemark><name>126 · Yadorigi Café (Katzencafé)</name><description><![CDATA[<b>Essen &amp; Trinken</b><br/>Geretteten Katzen, sehr sauber geführt - liegt mitten in Yanaka; Mo geschlossen<br/><a href="https://www.google.com/maps/search/?api=1&query=35.7287015,139.7653665&query_place_id=ChIJEwo9WquNGGARM2RPO2s9cP4">In Google Maps öffnen</a>]]></description><styleUrl>#essen_trinken</styleUrl><Point><coordinates>139.7653665,35.7287015,0</coordinates></Point></Placemark>
<Placemark><name>127 · Yanaka Ginza</name><description><![CDATA[<b>Essen &amp; Trinken</b><br/>Vorkriegs-Gassen, Tokio als Dorf; auch Kimono und Hanten<br/><a href="https://www.google.com/maps/search/?api=1&query=35.7276934,139.7657232&query_place_id=ChIJPYwFnNGNGGARYEeXwiYQPe8">In Google Maps öffnen</a>]]></description><styleUrl>#essen_trinken</styleUrl><Point><coordinates>139.7657232,35.7276934,0</coordinates></Point></Placemark>
<Placemark><name>128 · at-home cafe Akihabara (Maid Café)</name><description><![CDATA[<b>Essen &amp; Trinken</b><br/>Das bekannteste Maid-Café; Ticket unten im Haus ziehen, Wartezeit möglich<br/><a href="https://www.google.com/maps/search/?api=1&query=35.6996066,139.7708027&query_place_id=ChIJFw0-qR2MGGARK8G9zFZx69w">In Google Maps öffnen</a>]]></description><styleUrl>#essen_trinken</styleUrl><Point><coordinates>139.7708027,35.6996066,0</coordinates></Point></Placemark>
<Placemark><name>129 · Ameyoko-Markt</name><description><![CDATA[<b>Einkaufen &amp; Handwerk</b><br/>Second-Hand-Kimono bei Shitenno; werktags morgens hin<br/><a href="https://www.google.com/maps/search/?api=1&query=35.7090028,139.7746259&query_place_id=ChIJh7eDrwCPGGARCs9fpCkKS2U">In Google Maps öffnen</a>]]></description><styleUrl>#einkaufen_handwerk</styleUrl><Point><coordinates>139.7746259,35.7090028,0</coordinates></Point></Placemark>
<Placemark><name>130 · Cat Street</name><description><![CDATA[<b>Einkaufen &amp; Handwerk</b><br/>Die ruhigere Alternative zur Takeshita: autofreie Gasse mit Vintage-Läden<br/><a href="https://www.google.com/maps/search/?api=1&query=35.6671358,139.7064336&query_place_id=Eh1DYXQgU3QsIFNoaWJ1eWEsIFRva3lvLCBKYXBhbiIuKiwKFAoSCde5GQijjBhgEdADRQTN6CtGEhQKEgnlXVPkoowYYBGVMuIGuMgZSA">In Google Maps öffnen</a>]]></description><styleUrl>#einkaufen_handwerk</styleUrl><Point><coordinates>139.7064336,35.6671358,0</coordinates></Point></Placemark>
<Placemark><name>131 · GiGO Akihabara Building 3</name><description><![CDATA[<b>Einkaufen &amp; Handwerk</b><br/>Mehrstöckige Spielhalle; pro Etage ein Genre, Rhythmusspiele oben<br/><a href="https://www.google.com/maps/search/?api=1&query=35.6992456,139.7709552&query_place_id=ChIJR-PMBx2MGGARPFrgtULaJB0">In Google Maps öffnen</a>]]></description><styleUrl>#einkaufen_handwerk</styleUrl><Point><coordinates>139.7709552,35.6992456,0</coordinates></Point></Placemark>
<Placemark><name>132 · Hanazono-Schrein</name><description><![CDATA[<b>Einkaufen &amp; Handwerk</b><br/>Trödelmarkt an den meisten Sonntagen 6:30-15 Uhr - Sonntag 11.10.!<br/><a href="https://www.google.com/maps/search/?api=1&query=35.6935311,139.7053279&query_place_id=ChIJK9584NuMGGARVKfZjpYoQDs">In Google Maps öffnen</a>]]></description><styleUrl>#einkaufen_handwerk</styleUrl><Point><coordinates>139.7053279,35.6935311,0</coordinates></Point></Placemark>
<Placemark><name>133 · Harajuku Kawaii Zoo Land</name><description><![CDATA[<b>Einkaufen &amp; Handwerk</b><br/>Waschbären und Igel an einem Ort<br/><a href="https://www.google.com/maps/search/?api=1&query=35.6711522,139.7051552&query_place_id=ChIJqbFe3WSNGGARhhw-d2d4Kww">In Google Maps öffnen</a>]]></description><styleUrl>#einkaufen_handwerk</styleUrl><Point><coordinates>139.7051552,35.6711522,0</coordinates></Point></Placemark>
<Placemark><name>134 · Jimbocho (Buchviertel)</name><description><![CDATA[<b>Einkaufen &amp; Handwerk</b><br/>Größtes Antiquariatsviertel der Welt; Ukiyo-e und alte Karten<br/><a href="https://www.google.com/maps/search/?api=1&query=35.6958463,139.7572397&query_place_id=ChIJlfkRIs6NGGARkNOcR_rqLuI">In Google Maps öffnen</a>]]></description><styleUrl>#einkaufen_handwerk</styleUrl><Point><coordinates>139.7572397,35.6958463,0</coordinates></Point></Placemark>
<Placemark><name>135 · Kappabashi</name><description><![CDATA[<b>Einkaufen &amp; Handwerk</b><br/>Küchengerät, Messer, Schleifsteine<br/><a href="https://www.google.com/maps/search/?api=1&query=35.7105797,139.7879645&query_place_id=ChIJXYV-6JWOGGAR85vIZbM1RCE">In Google Maps öffnen</a>]]></description><styleUrl>#einkaufen_handwerk</styleUrl><Point><coordinates>139.7879645,35.7105797,0</coordinates></Point></Placemark>
<Placemark><name>136 · Nakano Broadway</name><description><![CDATA[<b>Einkaufen &amp; Handwerk</b><br/>Mandarake: Anime-Cels, Figuren, Vintage-Uhren; Kameras nebenan<br/><a href="https://www.google.com/maps/search/?api=1&query=35.7092475,139.6656524&query_place_id=ChIJg-7dspDyGGARvvDv4E5-tuE">In Google Maps öffnen</a>]]></description><styleUrl>#einkaufen_handwerk</styleUrl><Point><coordinates>139.6656524,35.7092475,0</coordinates></Point></Placemark>
<Placemark><name>137 · STREET KART Shibuya</name><description><![CDATA[<b>Einkaufen &amp; Handwerk</b><br/>Go-Kart auf echten Straßen; JAF-Übersetzung + Pass zwingend<br/><a href="https://www.google.com/maps/search/?api=1&query=35.6578204,139.6942086&query_place_id=ChIJAegY-QaNGGAR0t2U3IVjyyE">In Google Maps öffnen</a>]]></description><styleUrl>#einkaufen_handwerk</styleUrl><Point><coordinates>139.6942086,35.6578204,0</coordinates></Point></Placemark>
<Placemark><name>138 · TAITO Station Akihabara</name><description><![CDATA[<b>Einkaufen &amp; Handwerk</b><br/>5 Etagen Arcade; 3. Stock für Prügel- und Shoot-em-up-Klassiker<br/><a href="https://www.google.com/maps/search/?api=1&query=35.700244,139.771697&query_place_id=ChIJwQY4mB2MGGARgn-IBKS98Q8">In Google Maps öffnen</a>]]></description><styleUrl>#einkaufen_handwerk</styleUrl><Point><coordinates>139.771697,35.700244,0</coordinates></Point></Placemark>
<Placemark><name>139 · Takeshita-Straße</name><description><![CDATA[<b>Einkaufen &amp; Handwerk</b><br/>Harajukus schrille Hauptgasse - liegt direkt beim Waschbär-/Igel-Café<br/><a href="https://www.google.com/maps/search/?api=1&query=35.6710335,139.7051821&query_place_id=ChIJlVne8bqMGGARtX5O6ojMvsI">In Google Maps öffnen</a>]]></description><styleUrl>#einkaufen_handwerk</styleUrl><Point><coordinates>139.7051821,35.6710335,0</coordinates></Point></Placemark>
<Placemark><name>140 · MAGNET by Shibuya109 (Dachterrasse)</name><description><![CDATA[<b>Natur &amp; Aktiv</b><br/>Der klassische Blick von oben direkt auf die Kreuzung; Eintritt bzw. Getränk nötig<br/><a href="https://www.google.com/maps/search/?api=1&query=35.6597925,139.7009365&query_place_id=ChIJu7Og_VeLGGARpxf60AU-EGw">In Google Maps öffnen</a>]]></description><styleUrl>#natur_aktiv</styleUrl><Point><coordinates>139.7009365,35.6597925,0</coordinates></Point></Placemark>
<Placemark><name>141 · Rathaus Shinjuku - Aussichtsplattform</name><description><![CDATA[<b>Natur &amp; Aktiv</b><br/>45. Stock, KOSTENLOS, bei klarer Sicht bis zum Fuji; Mo geschlossen<br/><a href="https://www.google.com/maps/search/?api=1&query=35.689733,139.6916563&query_place_id=ChIJnctryNSMGGARLv4MknPFseU">In Google Maps öffnen</a>]]></description><styleUrl>#natur_aktiv</styleUrl><Point><coordinates>139.6916563,35.689733,0</coordinates></Point></Placemark>
<Placemark><name>142 · Shibuya Crossing</name><description><![CDATA[<b>Natur &amp; Aktiv</b><br/>Die Kreuzung selbst; am besten von oben betrachten (siehe nächste Einträge)<br/><a href="https://www.google.com/maps/search/?api=1&query=35.659482,139.7005596&query_place_id=ChIJK9EM68qLGGARacmu4KJj5SA">In Google Maps öffnen</a>]]></description><styleUrl>#natur_aktiv</styleUrl><Point><coordinates>139.7005596,35.659482,0</coordinates></Point></Placemark>
<Placemark><name>143 · Shibuya Hikarie Sky Lobby</name><description><![CDATA[<b>Natur &amp; Aktiv</b><br/>11. Stock, KOSTENLOS, Blick auf die Kreuzung - die Gratis-Alternative zu Shibuya Sky<br/><a href="https://www.google.com/maps/search/?api=1&query=35.6589891,139.7033923&query_place_id=ChIJg2SAmtiLGGARj3yqq4Upxkg">In Google Maps öffnen</a>]]></description><styleUrl>#natur_aktiv</styleUrl><Point><coordinates>139.7033923,35.6589891,0</coordinates></Point></Placemark>
<Placemark><name>144 · Shibuya Sky</name><description><![CDATA[<b>Natur &amp; Aktiv</b><br/>Aussichtsplattform; Ticket vorab, Sonnenuntergang ausgebucht<br/><a href="https://www.google.com/maps/search/?api=1&query=35.6586719,139.7019848&query_place_id=ChIJ4Rr2JWiLGGARcyRSHuZ-9G8">In Google Maps öffnen</a>]]></description><styleUrl>#natur_aktiv</styleUrl><Point><coordinates>139.7019848,35.6586719,0</coordinates></Point></Placemark>
<Placemark><name>145 · Shinjuku Gyoen</name><description><![CDATA[<b>Natur &amp; Aktiv</b><br/>Riesiger Garten mitten in der Stadt; Mo geschlossen, ~500 Yen<br/><a href="https://www.google.com/maps/search/?api=1&query=35.6851763,139.7100517&query_place_id=ChIJPyOTG8KMGGARh_IXobWxHmo">In Google Maps öffnen</a>]]></description><styleUrl>#natur_aktiv</styleUrl><Point><coordinates>139.7100517,35.6851763,0</coordinates></Point></Placemark>
<Placemark><name>146 · Tokyo Skytree</name><description><![CDATA[<b>Natur &amp; Aktiv</b><br/>Höchster Turm der Welt; teuer und voll - das Rathaus ist die Spar-Alternative<br/><a href="https://www.google.com/maps/search/?api=1&query=35.7100627,139.8107004&query_place_id=ChIJ35ov0dCOGGARKvdDH7NPHX0">In Google Maps öffnen</a>]]></description><styleUrl>#natur_aktiv</styleUrl><Point><coordinates>139.8107004,35.7100627,0</coordinates></Point></Placemark>
<Placemark><name>147 · Shin-Ōkubo (Airbnb, gebucht)</name><description><![CDATA[<b>Übernachten</b><br/>JR-Yamanote-Linie, K-Town; 10-15 Min. zu Golden Gai/Omoide Yokocho<br/><a href="https://www.google.com/maps/search/?api=1&query=35.7012459,139.7002258&query_place_id=ChIJKUnkNy-NGGARRdVS60w64HA">In Google Maps öffnen</a>]]></description><styleUrl>#übernachten</styleUrl><Point><coordinates>139.7002258,35.7012459,0</coordinates></Point></Placemark>
<Placemark><name>148 · Ryokan Katsutaro</name><description><![CDATA[<b>Übernachten</b><br/>Winziges Familien-Ryokan nahe Ueno; schlicht, ruhig, traditionell, Wirtsfamilie wohnt im Haus<br/><a href="https://www.google.com/maps/search/?api=1&query=35.717876,139.7694412&query_place_id=ChIJKanmECmMGGARXiz7aIqLSNI">In Google Maps öffnen</a>]]></description><styleUrl>#übernachten</styleUrl><Point><coordinates>139.7694412,35.717876,0</coordinates></Point></Placemark>
<Placemark><name>149 · Ryokan Sawanoya (Yanaka)</name><description><![CDATA[<b>Übernachten</b><br/>4,8 Sterne - seit 70+ Jahren familiengeführt, Holzfassade, Tatami/Futon, 2 private Bäder am Garten; mitten in Yanaka<br/><a href="https://www.google.com/maps/search/?api=1&query=35.720999,139.7648659&query_place_id=ChIJgareHi2MGGARDtCIy-GJdcg">In Google Maps öffnen</a>]]></description><styleUrl>#übernachten</styleUrl><Point><coordinates>139.7648659,35.720999,0</coordinates></Point></Placemark>
</Folder>
<Folder><name>Tokio — Ausflüge</name>
<Placemark><name>150 · Cup Noodles Museum (Yokohama)</name><description><![CDATA[<b>Kultur</b><br/>Eigene Cup-Noodle mischen und bemalen; Di geschlossen, vorab buchen<br/><a href="https://www.google.com/maps/search/?api=1&query=35.4554755,139.6388669&query_place_id=ChIJ3ZNhe1dcGGARvjq5QHdmaHM">In Google Maps öffnen</a>]]></description><styleUrl>#kultur</styleUrl><Point><coordinates>139.6388669,35.4554755,0</coordinates></Point></Placemark>
<Placemark><name>151 · Ghibli Museum</name><description><![CDATA[<b>Kultur</b><br/>Ticket am 10.09. um 10 Uhr JST buchen; Di geschlossen<br/><a href="https://www.google.com/maps/search/?api=1&query=35.696238,139.5704317&query_place_id=ChIJLYwD5TTuGGARBZKEP5BV4U0">In Google Maps öffnen</a>]]></description><styleUrl>#kultur</styleUrl><Point><coordinates>139.5704317,35.696238,0</coordinates></Point></Placemark>
<Placemark><name>152 · Kamakura: Hase-dera</name><description><![CDATA[<b>Kultur</b><br/>Hanggarten mit Meerblick, 9-m-Kannon und Benzaiten-Höhle; früh hin<br/><a href="https://www.google.com/maps/search/?api=1&query=35.3124645,139.5330634&query_place_id=ChIJ1SdxB_RFGGAR0a33ulBh61c">In Google Maps öffnen</a>]]></description><styleUrl>#kultur</styleUrl><Point><coordinates>139.5330634,35.3124645,0</coordinates></Point></Placemark>
<Placemark><name>153 · Kamakura: Tsurugaoka Hachimangu</name><description><![CDATA[<b>Kultur</b><br/>Der zentrale Schrein der Kamakura-Zeit, am Ende der Hauptallee<br/><a href="https://www.google.com/maps/search/?api=1&query=35.3259856,139.5563462&query_place_id=ChIJiaqQeLhFGGARtTZQEBCtZ6g">In Google Maps öffnen</a>]]></description><styleUrl>#kultur</styleUrl><Point><coordinates>139.5563462,35.3259856,0</coordinates></Point></Placemark>
<Placemark><name>154 · Kotoku-in (Kamakura)</name><description><![CDATA[<b>Kultur</b><br/>Tagesausflug: Großer Buddha<br/><a href="https://www.google.com/maps/search/?api=1&query=35.3168145,139.5357442&query_place_id=ChIJBbxJ3_JFGGARTO9rLbCTwx4">In Google Maps öffnen</a>]]></description><styleUrl>#kultur</styleUrl><Point><coordinates>139.5357442,35.3168145,0</coordinates></Point></Placemark>
<Placemark><name>155 · Nikko Tosho-gu</name><description><![CDATA[<b>Kultur</b><br/>Tagesausflug: Mausoleum von Tokugawa Ieyasu<br/><a href="https://www.google.com/maps/search/?api=1&query=36.7580878,139.5987466&query_place_id=ChIJNSAhU8WmH2ARlA7wenFbUKs">In Google Maps öffnen</a>]]></description><styleUrl>#kultur</styleUrl><Point><coordinates>139.5987466,36.7580878,0</coordinates></Point></Placemark>
<Placemark><name>156 · Nikko: Futarasan-Schrein</name><description><![CDATA[<b>Kultur</b><br/>Älter und viel ruhiger als der Toshogu nebenan<br/><a href="https://www.google.com/maps/search/?api=1&query=36.7584491,139.5964386&query_place_id=ChIJF0MR5MSmH2ARto0YlyRPpLU">In Google Maps öffnen</a>]]></description><styleUrl>#kultur</styleUrl><Point><coordinates>139.5964386,36.7584491,0</coordinates></Point></Placemark>
<Placemark><name>157 · Nikko: Shinkyo-Brücke</name><description><![CDATA[<b>Kultur</b><br/>Die rote Brücke am Eingang zum Schreinbezirk; von außen gratis<br/><a href="https://www.google.com/maps/search/?api=1&query=36.75337,139.6040034&query_place_id=ChIJI0JCh9amH2AR5y9YEeyfKjk">In Google Maps öffnen</a>]]></description><styleUrl>#kultur</styleUrl><Point><coordinates>139.6040034,36.75337,0</coordinates></Point></Placemark>
<Placemark><name>158 · Takao 599 Museum</name><description><![CDATA[<b>Kultur</b><br/>Kostenlos, direkt an der Station - Natur des Bergs vor dem Aufstieg<br/><a href="https://www.google.com/maps/search/?api=1&query=35.6303991,139.2687022&query_place_id=ChIJ4bdZTFAZGWARVP34wSUUjtA">In Google Maps öffnen</a>]]></description><styleUrl>#kultur</styleUrl><Point><coordinates>139.2687022,35.6303991,0</coordinates></Point></Placemark>
<Placemark><name>159 · Yokohama: Kanteibyo-Tempel</name><description><![CDATA[<b>Kultur</b><br/>Taoistischer Tempel für Guan Yu; Eintritt frei, prunkvolle Decke<br/><a href="https://www.google.com/maps/search/?api=1&query=35.442282,139.64526&query_place_id=ChIJFW8gguRcGGARs2d1YSn4usk">In Google Maps öffnen</a>]]></description><styleUrl>#kultur</styleUrl><Point><coordinates>139.64526,35.442282,0</coordinates></Point></Placemark>
<Placemark><name>160 · Straw Hat Café (Ghibli Museum)</name><description><![CDATA[<b>Essen &amp; Trinken</b><br/>Nur mit Museumsticket zugänglich; beliebte Gerichte sind früh ausverkauft<br/><a href="https://www.google.com/maps/search/?api=1&query=35.6961641,139.5707816&query_place_id=ChIJLYwD5TTuGGAR-19kHfqPnUA">In Google Maps öffnen</a>]]></description><styleUrl>#essen_trinken</styleUrl><Point><coordinates>139.5707816,35.6961641,0</coordinates></Point></Placemark>
<Placemark><name>161 · Yokohama Chinatown: Zenrinmon-Tor</name><description><![CDATA[<b>Essen &amp; Trinken</b><br/>Eingang zu Japans größtem Chinatown; viele Stände schließen schon 19:30<br/><a href="https://www.google.com/maps/search/?api=1&query=35.4430716,139.6441052&query_place_id=ChIJ3zn-vuRcGGARld9SADfxTYU">In Google Maps öffnen</a>]]></description><styleUrl>#essen_trinken</styleUrl><Point><coordinates>139.6441052,35.4430716,0</coordinates></Point></Placemark>
<Placemark><name>162 · Mt. Takao</name><description><![CDATA[<b>Natur &amp; Aktiv</b><br/>Tagesausflug: leichte Wanderung + Onsen an der Talstation<br/><a href="https://www.google.com/maps/search/?api=1&query=35.6254126,139.2437385&query_place_id=ChIJb4ejXn8ZGWAR3y_2HoQLB8c">In Google Maps öffnen</a>]]></description><styleUrl>#natur_aktiv</styleUrl><Point><coordinates>139.2437385,35.6254126,0</coordinates></Point></Placemark>
<Placemark><name>163 · Nikko: Kegon-Wasserfall</name><description><![CDATA[<b>Natur &amp; Aktiv</b><br/>97 m Fall aus dem Chuzenji-See; Anfang Oktober beginnt die Laubfärbung<br/><a href="https://www.google.com/maps/search/?api=1&query=36.7380893,139.501941&query_place_id=ChIJwb6wwMioH2ARjVZDylifnCc">In Google Maps öffnen</a>]]></description><styleUrl>#natur_aktiv</styleUrl><Point><coordinates>139.501941,36.7380893,0</coordinates></Point></Placemark>
<Placemark><name>164 · Takao: Onsen Gokurakuyu</name><description><![CDATA[<b>Übernachten</b><br/>Onsen direkt an der Talstation nach der Wanderung. Achtung: Tattoos problematisch<br/><a href="https://www.google.com/maps/search/?api=1&query=35.6322309,139.2694859&query_place_id=ChIJ4bdZTFAZGWARNJV5dfRAXwQ">In Google Maps öffnen</a>]]></description><styleUrl>#übernachten</styleUrl><Point><coordinates>139.2694859,35.6322309,0</coordinates></Point></Placemark>
</Folder>
</Document></kml>